IRIDIUM 119             
1 42959U 17061E   25213.37757743  .00000039  00000+0  67367-5 0  9995
2 42959  86.4024 158.9267 0002172  78.6364 281.5076 14.34217906408973
IRIDIUM 107             
1 42960U 17061F   25213.32683432  .00000060  00000+0  14388-4 0  9993
2 42960  86.4026 158.9672 0001746  81.8051 278.3343 14.34218603408978
IRIDIUM 132             
1 42961U 17061G   25213.82155454  .00000264  00000+0  87289-4 0  9993
2 42961  86.4024 158.7425 0002145  85.4536 274.6904 14.34220362409049
IRIDIUM 136             
1 42962U 17061H   25214.20211398  .00000072  00000+0  18649-4 0  9998
2 42962  86.4025 158.5888 0002074  79.9173 280.2256 14.34218236409116
IRIDIUM 139             
1 42963U 17061J   25214.20845576  .00000106  00000+0  30854-4 0  9990
2 42963  86.4027 158.6429 0001972  85.8521 274.2900 14.34218572409123
IRIDIUM 125             
1 42964U 17061K   25213.35854870 -.00000277  00000+0 -10599-3 0  9997
2 42964  86.4032 159.0527 0001844  68.3494 291.7898 14.34217191409011
IRIDIUM 135             
1 43070U 17083A   25213.61174926  .00000087  00000+0  24057-4 0  9998
2 43070  86.3945  95.6329 0002355  88.1485 271.9981 14.34217374398344
IRIDIUM 138             
1 43071U 17083B   25213.63712014  .00000026  00000+0  21269-5 0  9993
2 43071  86.3933  95.2871 0002303  72.4286 287.7161 14.34217703398338
